{"type": "FeatureCollection", "features": [ {"type": "Feature", "properties": {"norad_id": 44476, "name": "INTELSAT 39 (IS-39)", "group": "intelsat", "lat": 0.02278401168400439, "lon": 143.29847639169662, "alt_km": 35781.27434893066, "timestamp": "2025-12-17T23:38:06.530778+00:00", "meta": {"OBJECT_NAME": "INTELSAT 39 (IS-39)", "OBJECT_ID": "2019-049B", "EPOCH": "2025-12-17T15:07:16.808160", "MEAN_MOTION": 1.00270101, "ECCENTRICITY": 0.00012716, "INCLINATION": 0.0271, "RA_OF_ASC_NODE": 350.8796, "ARG_OF_PERICENTER": 141.7504, "MEAN_ANOMALY": 242.623, "EPHEMERIS_TYPE": 0, "CLASSIFICATION_TYPE": "U", "NORAD_CAT_ID": 44476, "ELEMENT_SET_NO": 999, "REV_AT_EPOCH": 2330, "BSTAR": 0, "MEAN_MOTION_DOT": 0, "MEAN_MOTION_DDOT": 0}, "tle": {"line1": "1 44476U 19049B   25351.63005565  .00000000  00000+0  00000+0 0  9992", "line2": "2 44476   0.0271 350.8796 0001271 141.7504 242.6230  1.00270101 23307"}}, "geometry": {"type": "Point", "coordinates": [143.29847639169662, 0.02278401168400439]}}, {"type": "Feature", "properties": {"norad_id": 46114, "name": "GALAXY 30 (G-30)", "group": "intelsat", "lat": -0.028775576288301352, "lon": -43.6078673364108, "alt_km": 35780.78399676066, "timestamp": "2025-12-17T23:38:06.530790+00:00", "meta": {"OBJECT_NAME": "GALAXY 30 (G-30)", "OBJECT_ID": "2020-056C", "EPOCH": "2025-12-16T10:32:38.625216", "MEAN_MOTION": 1.00271809, "ECCENTRICITY": 0.00020504, "INCLINATION": 0.0174, "RA_OF_ASC_NODE": 8.9673, "ARG_OF_PERICENTER": 254.0657, "MEAN_ANOMALY": 215.4609, "EPHEMERIS_TYPE": 0, "CLASSIFICATION_TYPE": "U", "NORAD_CAT_ID": 46114, "ELEMENT_SET_NO": 999, "REV_AT_EPOCH": 1946, "BSTAR": 0, "MEAN_MOTION_DOT": 6e-07, "MEAN_MOTION_DDOT": 0}, "tle": {"line1": "1 46114U 20056C   25350.43933594  .00000060  00000+0  00000+0 0  9998", "line2": "2 46114   0.0174   8.9673 0002050 254.0657 215.4609  1.00271809 19464"}}, "geometry": {"type": "Point", "coordinates": [-43.6078673364108, -0.028775576288301352]}}, {"type": "Feature", "properties": {"norad_id": 54026, "name": "GALAXY 33 (G-33)", "group": "intelsat", "lat": -0.02985061866361235, "lon": -51.59836404674018, "alt_km": 35780.5491828653, "timestamp": "2025-12-17T23:38:06.530802+00:00", "meta": {"OBJECT_NAME": "GALAXY 33 (G-33)", "OBJECT_ID": "2022-128A", "EPOCH": "2025-12-17T14:24:23.836032", "MEAN_MOTION": 1.00273632, "ECCENTRICITY": 0.00017344, "INCLINATION": 0.0151, "RA_OF_ASC_NODE": 4.8133, "ARG_OF_PERICENTER": 256.2811, "MEAN_ANOMALY": 268.4949, "EPHEMERIS_TYPE": 0, "CLASSIFICATION_TYPE": "U", "NORAD_CAT_ID": 54026, "ELEMENT_SET_NO": 999, "REV_AT_EPOCH": 1192, "BSTAR": 0, "MEAN_MOTION_DOT": 1.03e-06, "MEAN_MOTION_DDOT": 0}, "tle": {"line1": "1 54026U 22128A   25351.60027588  .00000103  00000+0  00000+0 0  9996", "line2": "2 54026   0.0151   4.8133 0001734 256.2811 268.4949  1.00273632 11924"}}, "geometry": {"type": "Point", "coordinates": [-51.59836404674018, -0.02985061866361235]}}, {"type": "Feature", "properties": {"norad_id": 54027, "name": "GALAXY 34 (G-34)", "group": "intelsat", "lat": -0.02156373942468994, "lon": -47.542931864533486, "alt_km": 35782.26054751519, "timestamp": "2025-12-17T23:38:06.530814+00:00", "meta": {"OBJECT_NAME": "GALAXY 34 (G-34)", "OBJECT_ID": "2022-128B", "EPOCH": "2025-12-16T10:54:44.613792", "MEAN_MOTION": 1.00271358, "ECCENTRICITY": 0.00014405, "INCLINATION": 0.0238, "RA_OF_ASC_NODE": 335.9527, "ARG_OF_PERICENTER": 285.2083, "MEAN_ANOMALY": 218.9464, "EPHEMERIS_TYPE": 0, "CLASSIFICATION_TYPE": "U", "NORAD_CAT_ID": 54027, "ELEMENT_SET_NO": 999, "REV_AT_EPOCH": 1208, "BSTAR": 0, "MEAN_MOTION_DOT": 0, "MEAN_MOTION_DDOT": 0}, "tle": {"line1": "1 54027U 22128B   25350.45468303  .00000000  00000+0  00000+0 0  9999", "line2": "2 54027   0.0238 335.9527 0001440 285.2083 218.9464  1.00271358 12086"}}, "geometry": {"type": "Point", "coordinates": [-47.542931864533486, -0.02156373942468994]}}, {"type": "Feature", "properties": {"norad_id": 54243, "name": "GALAXY 31 (G-31)", "group": "intelsat", "lat": -0.029282394580159066, "lon": -39.62167918232249, "alt_km": 35781.15685431174, "timestamp": "2025-12-17T23:38:06.530826+00:00", "meta": {"OBJECT_NAME": "GALAXY 31 (G-31)", "OBJECT_ID": "2022-153A", "EPOCH": "2025-12-17T12:45:03.348864", "MEAN_MOTION": 1.00271956, "ECCENTRICITY": 0.00014751, "INCLINATION": 0.0187, "RA_OF_ASC_NODE": 29.3254, "ARG_OF_PERICENTER": 252.3101, "MEAN_ANOMALY": 235.0334, "EPHEMERIS_TYPE": 0, "CLASSIFICATION_TYPE": "U", "NORAD_CAT_ID": 54243, "ELEMENT_SET_NO": 999, "REV_AT_EPOCH": 531, "BSTAR": 0, "MEAN_MOTION_DOT": 0, "MEAN_MOTION_DDOT": 0}, "tle": {"line1": "1 54243U 22153A   25351.53128876  .00000000  00000+0  00000+0 0  9995", "line2": "2 54243   0.0187  29.3254 0001475 252.3101 235.0334  1.00271956  5312"}}, "geometry": {"type": "Point", "coordinates": [-39.62167918232249, -0.029282394580159066]}}, {"type": "Feature", "properties": {"norad_id": 54244, "name": "GALAXY 32 (G-32)", "group": "intelsat", "lat": 0.005660471383334749, "lon": -9.616174135204611, "alt_km": 35776.95993043661, "timestamp": "2025-12-17T23:38:06.530838+00:00", "meta": {"OBJECT_NAME": "GALAXY 32 (G-32)", "OBJECT_ID": "2022-153B", "EPOCH": "2025-12-17T04:19:59.261664", "MEAN_MOTION": 1.00271531, "ECCENTRICITY": 0.000259, "INCLINATION": 0.0104, "RA_OF_ASC_NODE": 339.7375, "ARG_OF_PERICENTER": 338.8221, "MEAN_ANOMALY": 101.4983, "EPHEMERIS_TYPE": 0, "CLASSIFICATION_TYPE": "U", "NORAD_CAT_ID": 54244, "ELEMENT_SET_NO": 999, "REV_AT_EPOCH": 1131, "BSTAR": 0, "MEAN_MOTION_DOT": -1.5e-06, "MEAN_MOTION_DDOT": 0}, "tle": {"line1": "1 54244U 22153B   25351.18054701 -.00000150  00000+0  00000+0 0  9999", "line2": "2 54244   0.0104 339.7375 0002590 338.8221 101.4983  1.00271531 11318"}}, "geometry": {"type": "Point", "coordinates": [-9.616174135204611, 0.005660471383334749]}}, {"type": "Feature", "properties": {"norad_id": 54741, "name": "GALAXY 35 (G-35)", "group": "intelsat", "lat": -0.009756021908031457, "lon": -11.729445584194853, "alt_km": 35784.44739789283, "timestamp": "2025-12-17T23:38:06.530849+00:00", "meta": {"OBJECT_NAME": "GALAXY 35 (G-35)", "OBJECT_ID": "2022-170A", "EPOCH": "2025-12-17T09:27:30.722976", "MEAN_MOTION": 1.00269092, "ECCENTRICITY": 0.000226, "INCLINATION": 0.0181, "RA_OF_ASC_NODE": 13.1687, "ARG_OF_PERICENTER": 259.8183, "MEAN_ANOMALY": 222.0446, "EPHEMERIS_TYPE": 0, "CLASSIFICATION_TYPE": "U", "NORAD_CAT_ID": 54741, "ELEMENT_SET_NO": 999, "REV_AT_EPOCH": 1107, "BSTAR": 0, "MEAN_MOTION_DOT": 0, "MEAN_MOTION_DDOT": 0}, "tle": {"line1": "1 54741U 22170A   25351.39410559  .00000000  00000+0  00000+0 0  9993", "line2": "2 54741   0.0181  13.1687 0002260 259.8183 222.0446  1.00269092 11073"}}, "geometry": {"type": "Point", "coordinates": [-11.729445584194853, -0.009756021908031457]}}, {"type": "Feature", "properties": {"norad_id": 54742, "name": "GALAXY 36 (G-36)", "group": "intelsat", "lat": 0.01680940175561922, "lon": -7.6278705011412065, "alt_km": 35784.78334815656, "timestamp": "2025-12-17T23:38:06.530861+00:00", "meta": {"OBJECT_NAME": "GALAXY 36 (G-36)", "OBJECT_ID": "2022-170B", "EPOCH": "2025-12-17T12:54:09.976608", "MEAN_MOTION": 1.00271566, "ECCENTRICITY": 3.414e-05, "INCLINATION": 0.0139, "RA_OF_ASC_NODE": 287.9317, "ARG_OF_PERICENTER": 50.0127, "MEAN_ANOMALY": 213.0127, "EPHEMERIS_TYPE": 0, "CLASSIFICATION_TYPE": "U", "NORAD_CAT_ID": 54742, "ELEMENT_SET_NO": 999, "REV_AT_EPOCH": 1095, "BSTAR": 0, "MEAN_MOTION_DOT": -1.6e-06, "MEAN_MOTION_DDOT": 0}, "tle": {"line1": "1 54742U 22170B   25351.53761547 -.00000160  00000+0  00000+0 0  9994", "line2": "2 54742   0.0139 287.9317 0000341  50.0127 213.0127  1.00271566 10956"}}, "geometry": {"type": "Point", "coordinates": [-7.6278705011412065, 0.01680940175561922]}}, {"type": "Feature", "properties": {"norad_id": 57493, "name": "GALAXY 37 (G-37)", "group": "intelsat", "lat": -0.03485519760095855, "lon": -45.59658910881503, "alt_km": 35779.51171448726, "timestamp": "2025-12-17T23:38:06.530872+00:00", "meta": {"OBJECT_NAME": "GALAXY 37 (G-37)", "OBJECT_ID": "2023-112A", "EPOCH": "2025-12-15T23:03:25.663680", "MEAN_MOTION": 1.00272925, "ECCENTRICITY": 0.00019988, "INCLINATION": 0.0242, "RA_OF_ASC_NODE": 56.2601, "ARG_OF_PERICENTER": 214.3075, "MEAN_ANOMALY": 33.1555, "EPHEMERIS_TYPE": 0, "CLASSIFICATION_TYPE": "U", "NORAD_CAT_ID": 57493, "ELEMENT_SET_NO": 999, "REV_AT_EPOCH": 870, "BSTAR": 0, "MEAN_MOTION_DOT": 7e-07, "MEAN_MOTION_DDOT": 0}, "tle": {"line1": "1 57493U 23112A   25349.96071370  .00000070  00000+0  00000+0 0  9998", "line2": "2 57493   0.0242  56.2601 0001998 214.3075  33.1555  1.00272925  8702"}}, "geometry": {"type": "Point", "coordinates": [-45.59658910881503, -0.03485519760095855]}}]}